#dP2024  5 15  0  0  0.00000000      96 __u+U IGS20 FIT  IAC
## 2314 259200.00000000   900.00000000 60445 0.0000000000000
+   54   G02G03G04G05G06G07G08G09G10G11G12G13G14G15G16G17G18
+        G19G20G21G22G23G24G25G26G27G28G29G30G31G32R01R02R03
+        R04R05R07R08R09R11R12R13R14R15R16R17R18R19R20R21R22
+        R24R25R26  0  0  0  0  0  0  0  0  0  0  0  0  0  0
+          0  0  0  0  0  0  0  0  0  0  0  0  0  0  0  0  0
++         7  6  5  6  6  6  7  6  6  6  7  5  7  7  7  7  6
++         7  7  5  8  6  8  5  6  6  5  6  6  6  6  7  7  7
++         7  4  6  5  5  6  6  7  7  6  7  6  7  5  6  6  6
++         6  6  6  0  0  0  0  0  0  0  0  0  0  0  0  0  0
++         0  0  0  0  0  0  0  0  0  0  0  0  0  0  0  0  0
%c M  cc GPS ccc cccc cccc cccc cccc ccccc ccccc ccccc ccccc
%c cc cc ccc ccc cccc cccc cccc cccc ccccc ccccc ccccc ccccc
%f  0.0000000  0.000000000  0.00000000000  0.000000000000000
%f  0.0000000  0.000000000  0.00000000000  0.000000000000000
%i    0    0    0    0      0      0      0      0         0
%i    0    0    0    0      0      0      0      0         0
/* INFORMATION & ANALYSIS CENTER (IAC)      ULTRA-RAPID DATA
/* S/V CLOCKS ARE ALIGNED TO GNSS TIME                      
/* G:C1WC2W R:C1PC2P E:C1XC5X C:C2IC6I J:C1CC2S             
/* PCV:IGS20_2290 OL/AL:FES2004  NONE     YN ORB:CoN CLK:CoN
*  2024 05 15 13 30  0.00000000
PG02  14074.259985 -15696.473127  16456.431996   -435.773320
PG03  21216.647439 -12666.669879  -9725.276442    364.561682
PG04  12114.015610  -9179.466837 -21770.158810    361.604681
PG05 -25652.874163   4730.875161  -5424.840739   -172.794886
PG06  -6923.249440 -18627.982630 -17502.708819    271.857310
PG07   4867.849342 -25789.847046   2224.521631   -129.383285
PG08  19331.376883     -8.533667  18284.504082    179.471602
PG09   -240.008561 -18502.523909 -19114.187894    197.265309
PG10   9269.243768  12439.464401  21810.476205    -23.577021
PG11 -13946.152610  -5906.167719 -21798.819444   -662.717733
PG12 -22900.147195  10740.938491  -8296.034378   -505.559961
PG13 -20052.143725  -9888.253882  14310.069260    650.672299
PG14  -4906.110014 -14780.079734  21553.538042    401.333310
PG15 -19226.286902   2410.223410  17752.475398    159.294657
PG16  25544.775367    998.981509  -8349.823912   -291.005877
PG17 -10831.322456 -22142.640308  10095.997308    706.076867
PG18  -5209.530340  25809.579745   2558.872574   -610.949851
PG19 -16994.812363 -20684.206532    309.361395    482.399693
PG20 -21788.023670  -1199.342193 -14979.953869    376.494805
PG21  15292.687523  -9732.911757  19488.001919    121.477513
PG22 -12775.085652 -11992.064127  20297.184360    -13.945643
PG23  -4337.554599  15976.743531  20746.269574    226.028842
PG24 -14530.041074  14095.531525  16563.227680   -469.815490
PG25 -14960.486314  15922.995315 -15255.945201    495.758158
PG26  18015.587451   7739.469891 -18223.994816    152.500385
PG27  21956.914229  10996.100423  10354.896593    -24.089055
PG28   6575.961333  20580.627144 -15461.018130   -245.075487
PG29  -3701.551520  16742.341273 -20305.183215   -598.342562
PG30  -2964.027599 -23571.937097  11740.117535   -390.018831
PG31  12517.539855  10638.719430 -21009.490206   -227.820460
PG32  14353.284720  21149.432054   7802.755369   -618.214764
PR01 -22145.305105 -11332.230206  -5683.035759     85.444072
PR02 -22425.332718  -3695.754125  11568.302103    -22.954710
PR03 -10369.731082   7011.728530  22267.438834    100.205242
PR04   6937.620559  13333.103317  20645.852823    236.515730
PR05  20579.704288  12829.387779   7954.443258    131.540940
PR07   9678.457432  -7347.589262 -22388.774612     82.450845
PR08  -7278.980074 -13378.755860 -20388.680634    -75.427169
PR09  20442.646050  -8902.264533 -12291.246885    186.702402
PR11   6983.792017 -16480.173245  18176.598413     24.642229
PR12 -10742.519340  -5333.135057  22537.105943     40.165289
PR13 -19838.373279   6912.621160  14455.679081    -47.390428
PR14 -18258.683888  17238.010441  -4541.527349     26.502282
PR15  -5657.081731  15981.585656 -19041.865723     79.790283
PR16  10454.170675   5355.519752 -22626.794604     25.607715
PR17  -5425.938809  18426.519667 -16760.794191     86.999414
PR18   2050.449211  25388.099003  -1812.242840    142.176044
PR19   7416.649766  20826.822150  12716.493429   -276.712580
PR20  10466.067382    646.511038  23256.148333   -112.828859
PR21   5566.540746 -18310.611212  16871.165476   -101.027311
PR22  -1884.052861 -25423.175031    682.295454    111.798203
PR24 -10893.973576    517.065712 -23048.939508    -55.909927
PR25   6265.515368 -18461.478786  16461.746758    -36.019378
PR26  -6141.895523 -13122.448398 -20976.682378    -19.542819
*  2024 05 15 13 45  0.00000000
PG02  13974.388882 -13782.811065  18237.429360   -435.767177
PG03  22167.283472 -12779.618730  -7032.842393    364.579180
PG04  13866.021314  -7436.343285 -21398.766479    361.612322
PG05 -25019.082080   4275.465121  -8155.581268   -172.796130
PG06  -6374.401057 -20452.152742 -15565.124329    271.839636
PG07   5190.563380 -25757.801629   -636.024433   -129.390806
PG08  20767.383216   1397.572166  16627.750650    179.489981
PG09   1529.807046 -17120.752453 -20314.123353    197.278042
PG10   6925.563651  13200.749167  22205.272180    -23.582872
PG11 -13278.727134  -8291.393546 -21440.790430   -662.726083
PG12 -23696.110988  10693.421427  -5581.675005   -505.562929
PG13 -20895.785103 -11173.309833  12027.275259    650.674854
PG14  -2540.974507 -15456.821289  21468.548692    401.341694
PG15 -20804.149332   1127.557500  16086.491874    159.298533
PG16  24566.858718   1413.085476 -10895.253310   -290.996767
PG17  -9819.974049 -21392.014740  12564.639448    706.073883
PG18  -5463.504768  25879.647905   -332.076194   -610.955058
PG19 -16698.676771 -20660.068128   3147.890980    482.404544
PG20 -20251.543222  -2232.429214 -16900.536519    376.493069
PG21  15156.142452  -7494.127841  20666.741722    121.475279
PG22 -10551.956461 -12579.798863  21242.522508    -13.950234
PG23  -6540.043773  16656.623787  19583.756152    226.037357
PG24 -14503.347266  12001.037400  18159.468898   -469.818620
PG25 -16530.557164  16221.736458 -13099.005341    495.758758
PG26  16097.445422   8676.727696 -19527.268265    152.495236
PG27  22612.603374  11857.187606   7779.314784    -24.090605
PG28   6092.618622  22164.349180 -13320.241404   -245.090153
PG29  -5382.285620  15076.912474 -21225.921283   -598.341379
PG30  -2414.823017 -24677.079292   9286.827150   -390.013513
PG31  11875.714328  12868.748028 -20069.952421   -227.820060
PG32  13458.788910  20637.421593  10389.742682   -618.214500
PR01 -21349.315833 -10910.853293  -8731.113807     85.445457
PR02 -23639.163759  -4005.361901   8668.511386    -22.954914
PR03 -12888.218185   6121.254807  21181.566940    100.206534
PR04   4520.762622  12321.016626  21907.981286    236.517660
PR05  19557.870585  12253.411827  10899.296163    131.541607
PR07  12234.118198  -6436.485643 -21402.531941     82.451575
PR08  -4857.106188 -12396.531063 -21687.226535    -75.426656
PR09  19134.389657  -7845.741235 -14853.604891    186.703857
PR11   8534.059213 -17913.595026  16029.064207     24.641536
PR12  -8577.147232  -7110.040158  22971.883828     40.166034
PR13 -18306.322289   5734.394767  16800.371872    -47.390878
PR14 -18462.146995  17564.774566  -1371.901004     26.502326
PR15  -7323.218391  17468.235151 -17069.018302     79.789800
PR16   8282.263540   7155.262370 -23027.828850     25.608531
PR17  -5651.924668  16235.199669 -18827.546087     87.002283
PR18   2194.066710  24940.284599  -5012.800506    142.177964
PR19   7768.615197  22193.188226   9880.342025   -276.713227
PR20  10816.994519   3473.358042  22844.947592   -112.829709
PR21   5766.590173 -16103.964443  18926.379962   -101.030388
PR22  -1997.948171 -25128.616649   3880.472073    111.795876
PR24 -11351.106184  -2272.716393 -22721.064554    -55.911523
PR25   6422.011461 -16305.775510  18544.452758    -36.021623
PR26  -3663.497865 -12142.064097 -22111.927929    -19.540986
EOF
